{
  "type": "FeatureCollection",
  "features": [
    {
      "type": "Feature",
      "properties": {
        "norad_id": 66604,
        "name": "STARLINK-35977",
        "group": "last-30-days",
        "lat": -18.223908156736336,
        "lon": -39.44502794993715,
        "alt_km": 444.9856987936337,
        "timestamp": "2025-12-25T07:41:08.447349+00:00",
        "meta_object_name": "STARLINK-35977",
        "meta_object_id": "2025-270S",
        "meta_epoch": "2025-12-24T15:13:54.734592",
        "meta_mean_motion": 15.40706407,
        "meta_eccentricity": 0.00028051,
        "meta_inclination": 43.0045,
        "meta_ra_of_asc_node": 123.8193,
        "meta_arg_of_pericenter": 275.2484,
        "meta_mean_anomaly": 84.8053,
        "meta_ephemeris_type": 0,
        "meta_classification_type": "U",
        "meta_norad_cat_id": 66604,
        "meta_element_set_no": 999,
        "meta_rev_at_epoch": 618,
        "meta_bstar": 0.0015432576,
        "meta_mean_motion_dot": 0.00064729,
        "meta_mean_motion_ddot": 0,
        "tle_line1": "1 66604U 25270S   25358.63466128  .00064729  00000+0  15433-2 0  9992",
        "tle_line2": "2 66604  43.0045 123.8193 0002805 275.2484  84.8053 15.40706407  6181"
      },
      "geometry": {
        "type": "Point",
        "coordinates": [
          -39.44502794993715,
          -18.223908156736336
        ]
      }
    },
    {
      "type": "Feature",
      "properties": {
        "norad_id": 66605,
        "name": "STARLINK-36052",
        "group": "last-30-days",
        "lat": -41.867068510128824,
        "lon": 45.5881819740785,
        "alt_km": 445.7095036116716,
        "timestamp": "2025-12-25T07:41:08.447360+00:00",
        "meta_object_name": "STARLINK-36052",
        "meta_object_id": "2025-270T",
        "meta_epoch": "2025-12-24T14:54:33.643008",
        "meta_mean_motion": 15.40674017,
        "meta_eccentricity": 0.0002232,
        "meta_inclination": 43.0006,
        "meta_ra_of_asc_node": 123.7152,
        "meta_arg_of_pericenter": 282.2898,
        "meta_mean_anomaly": 77.7709,
        "meta_ephemeris_type": 0,
        "meta_classification_type": "U",
        "meta_norad_cat_id": 66605,
        "meta_element_set_no": 999,
        "meta_rev_at_epoch": 618,
        "meta_bstar": 0.0013217899,
        "meta_mean_motion_dot": 0.00055266,
        "meta_mean_motion_ddot": 0,
        "tle_line1": "1 66605U 25270T   25358.62122272  .00055266  00000+0  13218-2 0  9996",
        "tle_line2": "2 66605  43.0006 123.7152 0002232 282.2898  77.7709 15.40674017  6184"
      },
      "geometry": {
        "type": "Point",
        "coordinates": [
          45.5881819740785,
          -41.867068510128824
        ]
      }
    },
    {
      "type": "Feature",
      "properties": {
        "norad_id": 66606,
        "name": "STARLINK-36063",
        "group": "last-30-days",
        "lat": 5.978925897117478,
        "lon": 125.92769252017314,
        "alt_km": 443.005175063985,
        "timestamp": "2025-12-25T07:41:08.447370+00:00",
        "meta_object_name": "STARLINK-36063",
        "meta_object_id": "2025-270U",
        "meta_epoch": "2025-12-24T22:00:03.000096",
        "meta_mean_motion": 15.40673002,
        "meta_eccentricity": 0.00014751,
        "meta_inclination": 43.0004,
        "meta_ra_of_asc_node": 121.8005,
        "meta_arg_of_pericenter": 275.5789,
        "meta_mean_anomaly": 12.4175,
        "meta_ephemeris_type": 0,
        "meta_classification_type": "U",
        "meta_norad_cat_id": 66606,
        "meta_element_set_no": 999,
        "meta_rev_at_epoch": 609,
        "meta_bstar": 0.00090388743,
        "meta_mean_motion_dot": 0.00037606,
        "meta_mean_motion_ddot": 0,
        "tle_line1": "1 66606U 25270U   25358.91670139  .00037606  00000+0  90389-3 0  9992",
        "tle_line2": "2 66606  43.0004 121.8005 0001475 275.5789  12.4175 15.40673002  6097"
      },
      "geometry": {
        "type": "Point",
        "coordinates": [
          125.92769252017314,
          5.978925897117478
        ]
      }
    },
    {
      "type": "Feature",
      "properties": {
        "norad_id": 66607,
        "name": "STARLINK-35993",
        "group": "last-30-days",
        "lat": -38.35894533250544,
        "lon": 61.51318385412283,
        "alt_km": 446.3111221429226,
        "timestamp": "2025-12-25T07:41:08.447380+00:00",
        "meta_object_name": "STARLINK-35993",
        "meta_object_id": "2025-270V",
        "meta_epoch": "2025-12-24T08:37:55.111296",
        "meta_mean_motion": 15.40729562,
        "meta_eccentricity": 9.388e-05,
        "meta_inclination": 42.9984,
        "meta_ra_of_asc_node": 125.1915,
        "meta_arg_of_pericenter": 261.7193,
        "meta_mean_anomaly": 98.3557,
        "meta_ephemeris_type": 0,
        "meta_classification_type": "U",
        "meta_norad_cat_id": 66607,
        "meta_element_set_no": 999,
        "meta_rev_at_epoch": 604,
        "meta_bstar": 0.0010553328,
        "meta_mean_motion_dot": 0.00044078,
        "meta_mean_motion_ddot": 0,
        "tle_line1": "1 66607U 25270V   25358.35966564  .00044078  00000+0  10553-2 0  9996",
        "tle_line2": "2 66607  42.9984 125.1915 0000938 261.7193  98.3557 15.40729562  6044"
      },
      "geometry": {
        "type": "Point",
        "coordinates": [
          61.51318385412283,
          -38.35894533250544
        ]
      }
    },
    {
      "type": "Feature",
      "properties": {
        "norad_id": 66608,
        "name": "STARLINK-36036",
        "group": "last-30-days",
        "lat": 14.298506769932368,
        "lon": 135.31692413877494,
        "alt_km": 441.88982376903004,
        "timestamp": "2025-12-25T07:41:08.447390+00:00",
        "meta_object_name": "STARLINK-36036",
        "meta_object_id": "2025-270W",
        "meta_epoch": "2025-12-24T22:00:03.000096",
        "meta_mean_motion": 15.40668983,
        "meta_eccentricity": 0.00015089,
        "meta_inclination": 43.0005,
        "meta_ra_of_asc_node": 121.77,
        "meta_arg_of_pericenter": 282.5333,
        "meta_mean_anomaly": 17.9145,
        "meta_ephemeris_type": 0,
        "meta_classification_type": "U",
        "meta_norad_cat_id": 66608,
        "meta_element_set_no": 999,
        "meta_rev_at_epoch": 609,
        "meta_bstar": 0.0008670938,
        "meta_mean_motion_dot": 0.00036051,
        "meta_mean_motion_ddot": 0,
        "tle_line1": "1 66608U 25270W   25358.91670139  .00036051  00000+0  86709-3 0  9998",
        "tle_line2": "2 66608  43.0005 121.7700 0001508 282.5333  17.9145 15.40668983  6090"
      },
      "geometry": {
        "type": "Point",
        "coordinates": [
          135.31692413877494,
          14.298506769932368
        ]
      }
    },
    {
      "type": "Feature",
      "properties": {
        "norad_id": 66609,
        "name": "STARLINK-36034",
        "group": "last-30-days",
        "lat": 29.439143909039572,
        "lon": 156.65876253607888,
        "alt_km": 439.9658817047821,
        "timestamp": "2025-12-25T07:41:08.447400+00:00",
        "meta_object_name": "STARLINK-36034",
        "meta_object_id": "2025-270X",
        "meta_epoch": "2025-12-24T22:00:03.000096",
        "meta_mean_motion": 15.40673272,
        "meta_eccentricity": 0.00014932,
        "meta_inclination": 43.0004,
        "meta_ra_of_asc_node": 121.7101,
        "meta_arg_of_pericenter": 276.2116,
        "meta_mean_anomaly": 49.1032,
        "meta_ephemeris_type": 0,
        "meta_classification_type": "U",
        "meta_norad_cat_id": 66609,
        "meta_element_set_no": 999,
        "meta_rev_at_epoch": 609,
        "meta_bstar": 0.00093647215,
        "meta_mean_motion_dot": 0.0003898,
        "meta_mean_motion_ddot": 0,
        "tle_line1": "1 66609U 25270X   25358.91670139  .00038980  00000+0  93647-3 0  9991",
        "tle_line2": "2 66609  43.0004 121.7101 0001493 276.2116  49.1032 15.40673272  6096"
      },
      "geometry": {
        "type": "Point",
        "coordinates": [
          156.65876253607888,
          29.439143909039572
        ]
      }
    },
    {
      "type": "Feature",
      "properties": {
        "norad_id": 66610,
        "name": "STARLINK-35680",
        "group": "last-30-days",
        "lat": -26.548106118928732,
        "lon": 87.16946462036262,
        "alt_km": 445.4142297231674,
        "timestamp": "2025-12-25T07:41:08.447412+00:00",
        "meta_object_name": "STARLINK-35680",
        "meta_object_id": "2025-270Y",
        "meta_epoch": "2025-12-24T00:00:00.998784",
        "meta_mean_motion": 15.40682995,
        "meta_eccentricity": 0.0001894,
        "meta_inclination": 43.0005,
        "meta_ra_of_asc_node": 127.2016,
        "meta_arg_of_pericenter": 277.9055,
        "meta_mean_anomaly": 269.859,
        "meta_ephemeris_type": 0,
        "meta_classification_type": "U",
        "meta_norad_cat_id": 66610,
        "meta_element_set_no": 999,
        "meta_rev_at_epoch": 605,
        "meta_bstar": 0.0001957,
        "meta_mean_motion_dot": 7.875e-05,
        "meta_mean_motion_ddot": 0,
        "tle_line1": "1 66610U 25270Y   25358.00001156  .00007875  00000+0  19570-3 0  9992",
        "tle_line2": "2 66610  43.0005 127.2016 0001894 277.9055 269.8590 15.40682995  6058"
      },
      "geometry": {
        "type": "Point",
        "coordinates": [
          87.16946462036262,
          -26.548106118928732
        ]
      }
    }
  ]
}